[{"OBJECT_NAME":"NORSAT 2","OBJECT_ID":"2017-042D","EPOCH":"2026-03-09T22:36:44.019360","MEAN_MOTION":15.19710516,"ECCENTRICITY":0.00104189,"INCLINATION":97.3979,"RA_OF_ASC_NODE":244.1384,"ARG_OF_PERICENTER":44.3971,"MEAN_ANOMALY":315.8097,"EPHEMERIS_TYPE":0,"CLASSIFICATION_TYPE":"U","NORAD_CAT_ID":42828,"ELEMENT_SET_NO":999,"REV_AT_EPOCH":47265,"BSTAR":0.00070065492,"MEAN_MOTION_DOT":0.00014937,"MEAN_MOTION_DDOT":0},{"OBJECT_NAME":"HAWK-12C","OBJECT_ID":"2025-138A","EPOCH":"2026-03-09T22:54:55.356768","MEAN_MOTION":15.17353041,"ECCENTRICITY":0.00157924,"INCLINATION":97.4363,"RA_OF_ASC_NODE":73.1446,"ARG_OF_PERICENTER":124.4693,"MEAN_ANOMALY":235.8035,"EPHEMERIS_TYPE":0,"CLASSIFICATION_TYPE":"U","NORAD_CAT_ID":64621,"ELEMENT_SET_NO":999,"REV_AT_EPOCH":3881,"BSTAR":0.00031482945,"MEAN_MOTION_DOT":6.237e-5,"MEAN_MOTION_DDOT":0}]
